{"fetched_at":"2026-03-29T02:12:04Z","count":15717,"tles":[{"name":"LAGEOS 2","line1":"1 22195U 92070B   26079.09060082 -.00000009  00000+0  00000+0 0  9994","line2":"2 22195  52.6746 322.9737 0137714 148.3602   4.1736  6.47293426789650","category":"Other"}]}